{
  "norad_id": 63698,
  "name": "STARLINK-33922",
  "history": [
    {
      "epoch": "2026-03-28T19:55:53.940288Z",
      "apogee_km": 476.1510703234417,
      "perigee_km": 474.1722488684709,
      "latitude_deg": -5.240512929105203e-06,
      "longitude_deg": 5.184145214036813,
      "height_km": 475.90411398368315,
      "semi_major_axis_km": 6853.298659595956,
      "eccentricity": 0.00014437,
      "inclination_deg": 53.1596,
      "raan_deg": 130.4042,
      "arg_perigee_deg": 80.9651,
      "mean_anomaly_deg": 279.1513,
      "mean_motion_rev_day": 15.30217888
    },
    {
      "epoch": "2026-03-29T02:12:06.680736Z",
      "apogee_km": 476.2571499972473,
      "perigee_km": 474.10109674483556,
      "latitude_deg": -1.4127097620825288e-05,
      "longitude_deg": -90.33815482381695,
      "height_km": 475.9269485279578,
      "semi_major_axis_km": 6853.316123371042,
      "eccentricity": 0.0001573,
      "inclination_deg": 53.1588,
      "raan_deg": 129.1925,
      "arg_perigee_deg": 82.0162,
      "mean_anomaly_deg": 278.1017,
      "mean_motion_rev_day": 15.30212039
    },
    {
      "epoch": "2026-03-29T08:28:19.310592Z",
      "apogee_km": 475.80409823572154,
      "perigee_km": 474.5514493613673,
      "latitude_deg": -3.05938301595445e-06,
      "longitude_deg": 174.13422221976856,
      "height_km": 476.1322980153253,
      "semi_major_axis_km": 6853.314773798545,
      "eccentricity": 9.139e-05,
      "inclination_deg": 53.1594,
      "raan_deg": 127.975,
      "arg_perigee_deg": 95.132,
      "mean_anomaly_deg": 264.9785,
      "mean_motion_rev_day": 15.30212491
    },
    {
      "epoch": "2026-03-30T12:41:17.157120Z",
      "apogee_km": 476.0392862559811,
      "perigee_km": 474.360492851516,
      "latitude_deg": 3.939500258807705e-05,
      "longitude_deg": 104.27683483508368,
      "height_km": 475.9401479050115,
      "semi_major_axis_km": 6853.336889553749,
      "eccentricity": 0.00012248,
      "inclination_deg": 53.1583,
      "raan_deg": 122.5174,
      "arg_perigee_deg": 79.1696,
      "mean_anomaly_deg": 280.9443,
      "mean_motion_rev_day": 15.30205084
    },
    {
      "epoch": "2026-03-31T12:12:05.321952Z",
      "apogee_km": 476.2155175861526,
      "perigee_km": 474.2353070507388,
      "latitude_deg": 2.0882108621007105e-06,
      "longitude_deg": 106.06196132955631,
      "height_km": 475.3706029664577,
      "semi_major_axis_km": 6853.362412318445,
      "eccentricity": 0.00014447,
      "inclination_deg": 53.157,
      "raan_deg": 117.9689,
      "arg_perigee_deg": 40.4875,
      "mean_anomaly_deg": 319.6233,
      "mean_motion_rev_day": 15.30196536
    },
    {
      "epoch": "2026-04-01T17:59:05.718336Z",
      "apogee_km": 476.0703022193966,
      "perigee_km": 474.31310873931125,
      "latitude_deg": 1.1820948693355535e-05,
      "longitude_deg": 12.318156037102426,
      "height_km": 475.84778377905445,
      "semi_major_axis_km": 6853.328705479354,
      "eccentricity": 0.0001282,
      "inclination_deg": 53.1564,
      "raan_deg": 112.1999,
      "arg_perigee_deg": 74.0344,
      "mean_anomaly_deg": 286.0798,
      "mean_motion_rev_day": 15.30207825
    },
    {
      "epoch": "2026-04-02T08:05:34.368576Z",
      "apogee_km": 475.88128947871246,
      "perigee_km": 474.4538831994705,
      "latitude_deg": 1.5632326568290624e-05,
      "longitude_deg": 157.38629015808547,
      "height_km": 475.7918141404805,
      "semi_major_axis_km": 6853.304586339092,
      "eccentricity": 0.00010414,
      "inclination_deg": 53.156,
      "raan_deg": 109.4668,
      "arg_perigee_deg": 67.4374,
      "mean_anomaly_deg": 292.6737,
      "mean_motion_rev_day": 15.30215903
    },
    {
      "epoch": "2026-04-03T07:36:22.243968Z",
      "apogee_km": 476.07218619894684,
      "perigee_km": 474.43285542556805,
      "latitude_deg": -5.063228960769216e-05,
      "longitude_deg": 159.17190355574706,
      "height_km": 475.9784128600985,
      "semi_major_axis_km": 6853.389520812257,
      "eccentricity": 0.0001196,
      "inclination_deg": 53.1568,
      "raan_deg": 104.9176,
      "arg_perigee_deg": 77.8882,
      "mean_anomaly_deg": 282.2252,
      "mean_motion_rev_day": 15.30187457
    },
    {
      "epoch": "2026-04-04T10:15:16.845984Z",
      "apogee_km": 476.04281856657235,
      "perigee_km": 474.2948143850208,
      "latitude_deg": -1.6663538819448239e-06,
      "longitude_deg": 113.19541615463122,
      "height_km": 475.9755247212901,
      "semi_major_axis_km": 6853.305816475796,
      "eccentricity": 0.00012753,
      "inclination_deg": 53.1582,
      "raan_deg": 99.763,
      "arg_perigee_deg": 84.0115,
      "mean_anomaly_deg": 276.1031,
      "mean_motion_rev_day": 15.30215491
    },
    {
      "epoch": "2026-04-05T09:46:04.983168Z",
      "apogee_km": 475.9755310095461,
      "perigee_km": 474.4340773709482,
      "latitude_deg": 3.561578534090105e-05,
      "longitude_deg": 114.97831120768146,
      "height_km": 476.11612225915104,
      "semi_major_axis_km": 6853.341804190247,
      "eccentricity": 0.00011246,
      "inclination_deg": 53.1586,
      "raan_deg": 95.2121,
      "arg_perigee_deg": 90.9813,
      "mean_anomaly_deg": 269.1317,
      "mean_motion_rev_day": 15.30203438
    },
    {
      "epoch": "2026-04-06T06:08:46.469760Z",
      "apogee_km": 476.0380030300148,
      "perigee_km": 474.39854338155783,
      "latitude_deg": 5.956902997770868e-05,
      "longitude_deg": 164.52486400044097,
      "height_km": 476.18904769119837,
      "semi_major_axis_km": 6853.355273205786,
      "eccentricity": 0.00011961,
      "inclination_deg": 53.1598,
      "raan_deg": 91.2684,
      "arg_perigee_deg": 95.0828,
      "mean_anomaly_deg": 265.031,
      "mean_motion_rev_day": 15.30198927
    },
    {
      "epoch": "2026-04-07T05:39:34.219872Z",
      "apogee_km": 476.16231344845164,
      "perigee_km": 474.1507347332599,
      "latitude_deg": 2.176952336337865e-05,
      "longitude_deg": 166.30741906384827,
      "height_km": 476.77285600321073,
      "semi_major_axis_km": 6853.2935240908555,
      "eccentricity": 0.00014676,
      "inclination_deg": 53.1611,
      "raan_deg": 86.7156,
      "arg_perigee_deg": 135.5358,
      "mean_anomaly_deg": 224.5761,
      "mean_motion_rev_day": 15.30219608
    },
    {
      "epoch": "2026-04-08T05:10:21.732384Z",
      "apogee_km": 477.3812212298735,
      "perigee_km": 472.9511089978805,
      "latitude_deg": 1.540640301951076e-05,
      "longitude_deg": 168.09528989136643,
      "height_km": 478.21735474667315,
      "semi_major_axis_km": 6853.303165113877,
      "eccentricity": 0.00032321,
      "inclination_deg": 53.1613,
      "raan_deg": 82.1671,
      "arg_perigee_deg": 166.3327,
      "mean_anomaly_deg": 193.7762,
      "mean_motion_rev_day": 15.30216379
    },
    {
      "epoch": "2026-04-09T15:39:32.772960Z",
      "apogee_km": 476.18023635897225,
      "perigee_km": 474.24210949566987,
      "latitude_deg": -7.95618757897474e-06,
      "longitude_deg": 2.708159637288741,
      "height_km": 476.02323863794726,
      "semi_major_axis_km": 6853.348172927321,
      "eccentricity": 0.0001414,
      "inclination_deg": 53.1604,
      "raan_deg": 75.4923,
      "arg_perigee_deg": 84.9166,
      "mean_anomaly_deg": 275.1996,
      "mean_motion_rev_day": 15.30201305
    },
    {
      "epoch": "2026-04-10T07:20:04.602912Z",
      "apogee_km": 475.96466980177684,
      "perigee_km": 474.4254114254554,
      "latitude_deg": -2.2664379575893627e-05,
      "longitude_deg": 123.8993518875069,
      "height_km": 476.06066271140185,
      "semi_major_axis_km": 6853.332040613615,
      "eccentricity": 0.0001123,
      "inclination_deg": 53.1597,
      "raan_deg": 72.4599,
      "arg_perigee_deg": 87.5702,
      "mean_anomaly_deg": 272.5427,
      "mean_motion_rev_day": 15.30206708
    },
    {
      "epoch": "2026-04-11T14:41:08.834784Z",
      "apogee_km": 476.3883097066582,
      "perigee_km": 474.04994459607406,
      "latitude_deg": -9.34188386115853e-06,
      "longitude_deg": 6.273179376934575,
      "height_km": 476.08257152871874,
      "semi_major_axis_km": 6853.356127151366,
      "eccentricity": 0.0001706,
      "inclination_deg": 53.1596,
      "raan_deg": 66.3889,
      "arg_perigee_deg": 88.3346,
      "mean_anomaly_deg": 271.785,
      "mean_motion_rev_day": 15.30198641
    },
    {
      "epoch": "2026-04-12T20:28:09.499872Z",
      "apogee_km": 476.0611739385331,
      "perigee_km": 474.3759338078362,
      "latitude_deg": 7.909690065834114e-06,
      "longitude_deg": -87.46604563296572,
      "height_km": 476.2821322343891,
      "semi_major_axis_km": 6853.355553873184,
      "eccentricity": 0.00012295,
      "inclination_deg": 53.1594,
      "raan_deg": 60.6256,
      "arg_perigee_deg": 101.3261,
      "mean_anomaly_deg": 258.7878,
      "mean_motion_rev_day": 15.30198833
    },
    {
      "epoch": "2026-04-14T21:03:48.381984Z",
      "apogee_km": 476.1186965724464,
      "perigee_km": 474.2847431310147,
      "latitude_deg": 3.1655532376097844e-05,
      "longitude_deg": -107.77822506867484,
      "height_km": 476.2258816830412,
      "semi_major_axis_km": 6853.33871985173,
      "eccentricity": 0.0001338,
      "inclination_deg": 53.1591,
      "raan_deg": 51.2211,
      "arg_perigee_deg": 97.9146,
      "mean_anomaly_deg": 262.2007,
      "mean_motion_rev_day": 15.30204471
    },
    {
      "epoch": "2026-04-15T20:34:36.365376Z",
      "apogee_km": 476.28138530307115,
      "perigee_km": 474.1486221595096,
      "latitude_deg": -5.120919396406971e-05,
      "longitude_deg": -105.99357380197472,
      "height_km": 476.2479655955114,
      "semi_major_axis_km": 6853.35200373129,
      "eccentricity": 0.0001556,
      "inclination_deg": 53.161,
      "raan_deg": 46.6714,
      "arg_perigee_deg": 97.2813,
      "mean_anomaly_deg": 262.8364,
      "mean_motion_rev_day": 15.30200022
    }
  ]
}